{
  "type": "FeatureCollection",
  "features": [
    {
      "type": "Feature",
      "properties": {
        "norad_id": 54259,
        "name": "EUTELSAT 10B",
        "group": "eutelsat",
        "lat": 0.0036773869527629843,
        "lon": 75.91410942211463,
        "alt_km": 35784.631122096805,
        "timestamp": "2025-12-15T22:44:28.595493+00:00",
        "meta_object_name": "EUTELSAT 10B",
        "meta_object_id": "2022-157A",
        "meta_epoch": "2025-12-15T02:27:38.721600",
        "meta_mean_motion": 1.00271342,
        "meta_eccentricity": 6.636e-05,
        "meta_inclination": 0.0625,
        "meta_ra_of_asc_node": 99.1776,
        "meta_arg_of_pericenter": 34.3761,
        "meta_mean_anomaly": 357.3382,
        "meta_ephemeris_type": 0,
        "meta_classification_type": "U",
        "meta_norad_cat_id": 54259,
        "meta_element_set_no": 999,
        "meta_rev_at_epoch": 1118,
        "meta_bstar": 0,
        "meta_mean_motion_dot": 8.9e-07,
        "meta_mean_motion_ddot": 0,
        "tle_line1": "1 54259U 22157A   25349.10253150  .00000089  00000+0  00000+0 0  9997",
        "tle_line2": "2 54259   0.0625  99.1776 0000663  34.3761 357.3382  1.00271342 11180"
      },
      "geometry": {
        "type": "Point",
        "coordinates": [
          75.91410942211463,
          0.0036773869527629843
        ]
      }
    },
    {
      "type": "Feature",
      "properties": {
        "norad_id": 59346,
        "name": "EUTELSAT 36D",
        "group": "eutelsat",
        "lat": 0.04076432152706144,
        "lon": 101.78530374026687,
        "alt_km": 35786.34494865526,
        "timestamp": "2025-12-15T22:44:28.595505+00:00",
        "meta_object_name": "EUTELSAT 36D",
        "meta_object_id": "2024-059A",
        "meta_epoch": "2025-12-15T06:42:39.084192",
        "meta_mean_motion": 1.00269916,
        "meta_eccentricity": 3.484e-05,
        "meta_inclination": 0.0225,
        "meta_ra_of_asc_node": 351.573,
        "meta_arg_of_pericenter": 26.5024,
        "meta_mean_anomaly": 202.6068,
        "meta_ephemeris_type": 0,
        "meta_classification_type": "U",
        "meta_norad_cat_id": 59346,
        "meta_element_set_no": 999,
        "meta_rev_at_epoch": 630,
        "meta_bstar": 0,
        "meta_mean_motion_dot": 0,
        "meta_mean_motion_ddot": 0,
        "tle_line1": "1 59346U 24059A   25349.27961903  .00000000  00000+0  00000+0 0  9995",
        "tle_line2": "2 59346   0.0225 351.5730 0000348  26.5024 202.6068  1.00269916  6303"
      },
      "geometry": {
        "type": "Point",
        "coordinates": [
          101.78530374026687,
          0.04076432152706144
        ]
      }
    }
  ]
}